start=new Date('2022-12-24T00:00:00.000Z').valueOf();
sats=[{"OBJECT_ID":"2022-125G","SITE":"AFWTR","SEMIMAJOR_AXIS":"6917.911","OBJECT_NAME":"STARLINK-4567","LAUNCH_DATE":"2022-10-05","MEAN_ANOMALY":"311.4964","FILE":"3720518","OBJECT_TYPE":"PAYLOAD","PERIAPSIS":"538.587","COUNTRY_CODE":"US","RCS_SIZE":"LARGE","EPOCH":"2022-12-23T18:00:29.335392","TLE_LINE1":"1 53970U 22125G   22357.75033953  .00002386  00000-0  16801-3 0  9998","MEAN_MOTION_DOT":"0.00002386","TLE_LINE2":"2 53970  53.2161  80.5548 0001718  48.6176 311.4964 15.08830091 12469","CLASSIFICATION_TYPE":"U","REV_AT_EPOCH":"1246","MEAN_ELEMENT_THEORY":"SGP4","MEAN_MOTION_DDOT":"0.0000000000000","ARG_OF_PERICENTER":"48.6176","RA_OF_ASC_NODE":"80.5548","CENTER_NAME":"EARTH","TIME_SYSTEM":"UTC","PERIOD":"95.438","BSTAR":"0.00016801000000","APOAPSIS":"540.964","ECCENTRICITY":"0.00017180","ELEMENT_SET_NO":"999","MEAN_MOTION":"15.08830091","GP_ID":"221308371","EPHEMERIS_TYPE":"0","NORAD_CAT_ID":"53970","REF_FRAME":"TEME","DECAY_DATE":null,"INCLINATION":"53.2161"},{"OBJECT_ID":"2022-125H","SEMIMAJOR_AXIS":"6917.910","SITE":"AFWTR","OBJECT_NAME":"STARLINK-4639","LAUNCH_DATE":"2022-10-05","MEAN_ANOMALY":"324.8517","OBJECT_TYPE":"PAYLOAD","PERIAPSIS":"538.169","FILE":"3720518","TLE_LINE1":"1 53971U 22125H   22357.77646698  .00002568  00000-0  17947-3 0  9991","COUNTRY_CODE":"US","RCS_SIZE":"LARGE","EPOCH":"2022-12-23T18:38:06.747072","TLE_LINE2":"2 53971  53.2176  84.9985 0002321  35.2629 324.8517 15.08830437 12405","MEAN_MOTION_DOT":"0.00002568","CLASSIFICATION_TYPE":"U","MEAN_ELEMENT_THEORY":"SGP4","MEAN_MOTION_DDOT":"0.0000000000000","REV_AT_EPOCH":"1240","RA_OF_ASC_NODE":"84.9985","ARG_OF_PERICENTER":"35.2629","PERIOD":"95.438","CENTER_NAME":"EARTH","TIME_SYSTEM":"UTC","BSTAR":"0.00017947000000","MEAN_MOTION":"15.08830437","ELEMENT_SET_NO":"999","APOAPSIS":"541.380","ECCENTRICITY":"0.00023210","GP_ID":"221308578","NORAD_CAT_ID":"53971","EPHEMERIS_TYPE":"0","REF_FRAME":"TEME","INCLINATION":"53.2176","DECAY_DATE":null},{"MEAN_ANOMALY":"306.8055","LAUNCH_DATE":"2022-10-05","OBJECT_NAME":"STARLINK-5157","SEMIMAJOR_AXIS":"6917.921","SITE":"AFWTR","OBJECT_ID":"2022-125J","CLASSIFICATION_TYPE":"U","TLE_LINE2":"2 53972  53.2162  80.4191 0001574  53.3081 306.8055 15.08826647 12464","MEAN_MOTION_DOT":"0.00000943","TLE_LINE1":"1 53972U 22125J   22357.72823239  .00000943  00000-0  77358-4 0  9993","RCS_SIZE":"LARGE","EPOCH":"2022-12-23T17:28:39.278496","COUNTRY_CODE":"US","OBJECT_TYPE":"PAYLOAD","PERIAPSIS":"538.697","FILE":"3720518","BSTAR":"0.00007735800000","PERIOD":"95.438","CENTER_NAME":"EARTH","TIME_SYSTEM":"UTC","RA_OF_ASC_NODE":"80.4191","ARG_OF_PERICENTER":"53.3081","MEAN_MOTION_DDOT":"0.0000000000000","MEAN_ELEMENT_THEORY":"SGP4","REV_AT_EPOCH":"1246","INCLINATION":"53.2162","DECAY_DATE":null,"REF_FRAME":"TEME","EPHEMERIS_TYPE":"0","NORAD_CAT_ID":"53972","GP_ID":"221309610","MEAN_MOTION":"15.08826647","ELEMENT_SET_NO":"999","ECCENTRICITY":"0.00015740","APOAPSIS":"540.875"},{"REF_FRAME":"TEME","NORAD_CAT_ID":"53973","EPHEMERIS_TYPE":"0","DECAY_DATE":null,"INCLINATION":"53.2192","ECCENTRICITY":"0.00015490","APOAPSIS":"540.817","ELEMENT_SET_NO":"999","MEAN_MOTION":"15.08840095","GP_ID":"221312463","CENTER_NAME":"EARTH","TIME_SYSTEM":"UTC","PERIOD":"95.438","BSTAR":"0.00009938300000","REV_AT_EPOCH":"1250","MEAN_MOTION_DDOT":"0.0000000000000","MEAN_ELEMENT_THEORY":"SGP4","ARG_OF_PERICENTER":"60.1043","RA_OF_ASC_NODE":"84.0594","MEAN_MOTION_DOT":"0.00001294","TLE_LINE2":"2 53973  53.2192  84.0594 0001549  60.1043 300.0103 15.08840095 12509","CLASSIFICATION_TYPE":"U","FILE":"3720631","OBJECT_TYPE":"PAYLOAD","PERIAPSIS":"538.674","RCS_SIZE":"LARGE","EPOCH":"2022-12-23T23:13:39.852768","COUNTRY_CODE":"US","TLE_LINE1":"1 53973U 22125K   22357.96782237  .00001294  00000-0  99383-4 0  9994","LAUNCH_DATE":"2022-10-05","OBJECT_NAME":"STARLINK-5156","MEAN_ANOMALY":"300.0103","OBJECT_ID":"2022-125K","SEMIMAJOR_AXIS":"6917.880","SITE":"AFWTR"},{"TLE_LINE1":"1 53974U 22125L   22357.91668981 -.00914918  00000-0 -33554-1 0  9992","COUNTRY_CODE":"US","EPOCH":"2022-12-23T22:00:01.999584","RCS_SIZE":"LARGE","OBJECT_TYPE":"PAYLOAD","PERIAPSIS":"473.844","FILE":"3720358","CLASSIFICATION_TYPE":"U","TLE_LINE2":"2 53974  53.2170  64.8378 0001340  92.0123  93.4791 15.30352470 12768","MEAN_MOTION_DOT":"-0.00914918","SITE":"AFWTR","SEMIMAJOR_AXIS":"6852.897","OBJECT_ID":"2022-125L","MEAN_ANOMALY":"93.4791","OBJECT_NAME":"STARLINK-5159","LAUNCH_DATE":"2022-10-05","GP_ID":"221279908","ELEMENT_SET_NO":"999","MEAN_MOTION":"15.30352470","APOAPSIS":"475.680","ECCENTRICITY":"0.00013400","INCLINATION":"53.2170","DECAY_DATE":null,"NORAD_CAT_ID":"53974","EPHEMERIS_TYPE":"0","REF_FRAME":"TEME","RA_OF_ASC_NODE":"64.8378","ARG_OF_PERICENTER":"92.0123","MEAN_ELEMENT_THEORY":"SGP4","MEAN_MOTION_DDOT":"0.0000000000000","REV_AT_EPOCH":"1276","BSTAR":"-0.03355400000000","PERIOD":"94.096","CENTER_NAME":"EARTH","TIME_SYSTEM":"UTC"},{"GP_ID":"221309013","MEAN_MOTION":"15.08822686","ELEMENT_SET_NO":"999","APOAPSIS":"541.307","ECCENTRICITY":"0.00021810","INCLINATION":"53.2172","DECAY_DATE":null,"EPHEMERIS_TYPE":"0","NORAD_CAT_ID":"53975","REF_FRAME":"TEME","RA_OF_ASC_NODE":"81.0804","ARG_OF_PERICENTER":"32.1701","MEAN_ELEMENT_THEORY":"SGP4","MEAN_MOTION_DDOT":"0.0000000000000","REV_AT_EPOCH":"1244","BSTAR":"-0.00009874500000","PERIOD":"95.439","TIME_SYSTEM":"UTC","CENTER_NAME":"EARTH","TLE_LINE1":"1 53975U 22125M   22357.60680375 -.00001859  00000-0 -98745-4 0  9997","COUNTRY_CODE":"US","EPOCH":"2022-12-23T14:33:47.844000","RCS_SIZE":"LARGE","OBJECT_TYPE":"PAYLOAD","PERIAPSIS":"538.290","FILE":"3720518","CLASSIFICATION_TYPE":"U","TLE_LINE2":"2 53975  53.2172  81.0804 0002181  32.1701 327.9423 15.08822686 12445","MEAN_MOTION_DOT":"-0.00001859","SITE":"AFWTR","SEMIMAJOR_AXIS":"6917.933","OBJECT_ID":"2022-125M","MEAN_ANOMALY":"327.9423","OBJECT_NAME":"STARLINK-5137","LAUNCH_DATE":"2022-10-05"},{"ELEMENT_SET_NO":"999","MEAN_MOTION":"15.29308669","APOAPSIS":"479.184","ECCENTRICITY":"0.00019030","GP_ID":"221309219","EPHEMERIS_TYPE":"0","NORAD_CAT_ID":"53976","REF_FRAME":"TEME","INCLINATION":"53.2171","DECAY_DATE":null,"MEAN_ELEMENT_THEORY":"SGP4","MEAN_MOTION_DDOT":"0.0000000000000","REV_AT_EPOCH":"130","RA_OF_ASC_NODE":"64.9380","ARG_OF_PERICENTER":"37.9028","PERIOD":"94.160","CENTER_NAME":"EARTH","TIME_SYSTEM":"UTC","BSTAR":"-0.03453200000000","OBJECT_TYPE":"PAYLOAD","PERIAPSIS":"476.575","FILE":"3720518","TLE_LINE1":"1 53976U 22125N   22357.91668981 -.00911901  00000-0 -34532-1 0  9990","COUNTRY_CODE":"US","RCS_SIZE":"LARGE","EPOCH":"2022-12-23T22:00:01.999584","TLE_LINE2":"2 53976  53.2171  64.9380 0001903  37.9028 102.6274 15.29308669  1308","MEAN_MOTION_DOT":"-0.00911901","CLASSIFICATION_TYPE":"U","OBJECT_ID":"2022-125N","SEMIMAJOR_AXIS":"6856.015","SITE":"AFWTR","OBJECT_NAME":"STARLINK-5134","LAUNCH_DATE":"2022-10-05","MEAN_ANOMALY":"102.6274"},{"MEAN_MOTION":"15.08835025","ELEMENT_SET_NO":"999","ECCENTRICITY":"0.00014750","APOAPSIS":"540.781","GP_ID":"221309404","REF_FRAME":"TEME","NORAD_CAT_ID":"53977","EPHEMERIS_TYPE":"0","INCLINATION":"53.2167","DECAY_DATE":null,"MEAN_MOTION_DDOT":"0.0000000000000","MEAN_ELEMENT_THEORY":"SGP4","REV_AT_EPOCH":"1245","RA_OF_ASC_NODE":"80.6711","ARG_OF_PERICENTER":"61.9870","PERIOD":"95.438","CENTER_NAME":"EARTH","TIME_SYSTEM":"UTC","BSTAR":"0.00001653400000","PERIAPSIS":"538.740","OBJECT_TYPE":"PAYLOAD","FILE":"3720518","TLE_LINE1":"1 53977U 22125P   22357.65462256 -.00000025  00000-0  16534-4 0  9999","EPOCH":"2022-12-23T15:42:39.389184","RCS_SIZE":"LARGE","COUNTRY_CODE":"US","TLE_LINE2":"2 53977  53.2167  80.6711 0001475  61.9870 298.1272 15.08835025 12458","MEAN_MOTION_DOT":"-0.00000025","CLASSIFICATION_TYPE":"U","OBJECT_ID":"2022-125P","SEMIMAJOR_AXIS":"6917.896","SITE":"AFWTR","LAUNCH_DATE":"2022-10-05","OBJECT_NAME":"STARLINK-5094","MEAN_ANOMALY":"298.1272"},{"NORAD_CAT_ID":"53978","EPHEMERIS_TYPE":"0","REF_FRAME":"TEME","INCLINATION":"53.2176","DECAY_DATE":null,"ELEMENT_SET_NO":"999","MEAN_MOTION":"15.08824739","APOAPSIS":"541.309","ECCENTRICITY":"0.00021930","GP_ID":"221278004","PERIOD":"95.439","TIME_SYSTEM":"UTC","CENTER_NAME":"EARTH","BSTAR":"0.00013332000000","MEAN_ELEMENT_THEORY":"SGP4","MEAN_MOTION_DDOT":"0.0000000000000","REV_AT_EPOCH":"1243","RA_OF_ASC_NODE":"81.1554","ARG_OF_PERICENTER":"33.5053","TLE_LINE2":"2 53978  53.2176  81.1554 0002193  33.5053 326.6077 15.08824739 12434","MEAN_MOTION_DOT":"0.00001833","CLASSIFICATION_TYPE":"U","OBJECT_TYPE":"PAYLOAD","PERIAPSIS":"538.275","FILE":"3720302","TLE_LINE1":"1 53978U 22125Q   22357.50371801  .00001833  00000-0  13332-3 0  9998","COUNTRY_CODE":"US","RCS_SIZE":"LARGE","EPOCH":"2022-12-23T12:05:21.236064","OBJECT_NAME":"STARLINK-5148","LAUNCH_DATE":"2022-10-05","MEAN_ANOMALY":"326.6077","OBJECT_ID":"2022-125Q","SEMIMAJOR_AXIS":"6917.927","SITE":"AFWTR"},{"EPHEMERIS_TYPE":"0","NORAD_CAT_ID":"53979","REF_FRAME":"TEME","INCLINATION":"53.2173","DECAY_DATE":null,"MEAN_MOTION":"15.08830782","ELEMENT_SET_NO":"999","APOAPSIS":"540.654","ECCENTRICITY":"0.00012730","GP_ID":"221308579","PERIOD":"95.438","CENTER_NAME":"EARTH","TIME_SYSTEM":"UTC","BSTAR":"0.00012230000000","MEAN_ELEMENT_THEORY":"SGP4","MEAN_MOTION_DDOT":"0.0000000000000","REV_AT_EPOCH":"1245","RA_OF_ASC_NODE":"80.6043","ARG_OF_PERICENTER":"57.2851","TLE_LINE2":"2 53979  53.2173  80.6043 0001273  57.2851 302.8263 15.08830782 12456","MEAN_MOTION_DOT":"0.00001659","CLASSIFICATION_TYPE":"U","OBJECT_TYPE":"PAYLOAD","PERIAPSIS":"538.893","FILE":"3720518","TLE_LINE1":"1 53979U 22125R   22357.64355833  .00001659  00000-0  12230-3 0  9993","COUNTRY_CODE":"US","RCS_SIZE":"LARGE","EPOCH":"2022-12-23T15:26:43.439712","OBJECT_NAME":"STARLINK-5123","LAUNCH_DATE":"2022-10-05","MEAN_ANOMALY":"302.8263","OBJECT_ID":"2022-125R","SEMIMAJOR_AXIS":"6917.909","SITE":"AFWTR"}];
